CCSDS_OEM_VERS = 1.0
CREATION_DATE  = 2017-05-11T11:11:10
ORIGINATOR     = GMAT USER

META_START
OBJECT_NAME          = MOPSSat_alt_35785_km_RAAN_90_013
OBJECT_ID            = SatId
CENTER_NAME          = Earth
REF_FRAME            = EME2000
TIME_SYSTEM          = UTC
START_TIME           = 2017-01-01T00:00:00.000
USEABLE_START_TIME   = 2017-01-01T00:00:00.000
USEABLE_STOP_TIME    = 2017-01-02T00:00:00.000
STOP_TIME            = 2017-01-02T00:00:00.000
INTERPOLATION        = Lagrange
INTERPOLATION_DEGREE = 7 
META_STOP


                                                                                   

2017-01-01T00:00:00.000   2.581800381962450e-12   4.216400000000000e+04   0.000000000000000e+00  -3.027955193394710e+00   1.854087817776218e-16   5.339101969718053e-01
2017-01-01T00:00:10.000  -3.027954780180053e+01   4.216398878932538e+04   5.339101376534408e+00  -3.027954440082251e+00  -2.242135516088744e-03   5.339100912253217e-01
2017-01-01T00:00:20.000  -6.055908225380603e+01   4.216395515729449e+04   1.067820066990328e+01  -3.027952076570482e+00  -4.484269969529838e-03   5.339097015443764e-01
2017-01-01T00:00:30.000  -9.083858567329270e+01   4.216389910392820e+04   1.601729476203677e+01  -3.027948102860826e+00  -6.726402051036405e-03   5.339090279291899e-01
2017-01-01T00:00:40.000  -1.211180411218258e+02   4.216382062925875e+04   2.135638066610259e+01  -3.027942518955523e+00  -8.968530506434357e-03   5.339080703801281e-01
2017-01-01T00:00:50.000  -1.513974321680295e+02   4.216371973332969e+04   2.669545548467629e+01  -3.027935324857627e+00  -1.121065411909608e-02   5.339068288977005e-01
2017-01-01T00:01:00.000  -1.816767426978967e+02   4.216359641619567e+04   3.203451637629381e+01  -3.027926520570988e+00  -1.345277169589416e-02   5.339053034825566e-01
2017-01-01T00:01:10.000  -2.119559567680103e+02   4.216345067792258e+04   3.737356052957049e+01  -3.027916106100274e+00  -1.569488205633287e-02   5.339034941354911e-01
2017-01-01T00:01:20.000  -2.422350584970602e+02   4.216328251858774e+04   4.271258514407243e+01  -3.027904081450952e+00  -1.793698402451518e-02   5.339014008574398e-01
2017-01-01T00:01:30.000  -2.725140319910290e+02   4.216309193827989e+04   4.805158741712492e+01  -3.027890446629332e+00  -2.017907642360289e-02   5.338990236494865e-01
2017-01-01T00:01:40.000  -3.027928612974285e+02   4.216287893709970e+04   5.339056453574288e+01  -3.027875201642569e+00  -2.242115807242796e-02   5.338963625128645e-01
2017-01-01T00:01:50.000  -3.330715303839632e+02   4.216264351515994e+04   5.872951367286883e+01  -3.027858346498685e+00  -2.466322778391259e-02   5.338934174489589e-01
2017-01-01T00:02:00.000  -3.633500231369993e+02   4.216238567258559e+04   6.406843198710280e+01  -3.027839881206583e+00  -2.690528436495589e-02   5.338901884593122e-01
2017-01-01T00:02:10.000  -3.936283233752193e+02   4.216210540951416e+04   6.940731662511018e+01  -3.027819805776068e+00  -2.914732661744494e-02   5.338866755456236e-01
2017-01-01T00:02:20.000  -4.239064148738390e+02   4.216180272609572e+04   7.474616472589160e+01  -3.027798120217841e+00  -3.138935334004798e-02   5.338828787097512e-01
2017-01-01T00:02:30.000  -4.541842813947647e+02   4.216147762249279e+04   8.008497342610058e+01  -3.027774824543504e+00  -3.363136333044754e-02   5.338787979537124e-01
2017-01-01T00:02:40.000  -4.844619067180705e+02   4.216113009888033e+04   8.542373986559392e+01  -3.027749918765544e+00  -3.587335538767124e-02   5.338744332796803e-01
2017-01-01T00:02:50.000  -5.147392746701747e+02   4.216076015544518e+04   9.076246119239977e+01  -3.027723402897307e+00  -3.811532831417822e-02   5.338697846899797e-01
2017-01-01T00:03:00.000  -5.450163691440891e+02   4.216036779238566e+04   9.610113456628820e+01  -3.027695276952961e+00  -4.035728091735844e-02   5.338648521870792e-01
2017-01-01T00:03:10.000  -5.752931741071262e+02   4.215995300991050e+04   1.014397571601304e+02  -3.027665540947427e+00  -4.259921201010362e-02   5.338596357735826e-01
2017-01-01T00:03:20.000  -6.055696735914375e+02   4.215951580823811e+04   1.067783261582301e+02  -3.027634194896311e+00  -4.484112041010629e-02   5.338541354522117e-01
2017-01-01T00:03:30.000  -6.358458516627641e+02   4.215905618759481e+04   1.121168387508132e+02  -3.027601238815793e+00  -4.708300493754605e-02   5.338483512257940e-01
2017-01-01T00:03:40.000  -6.661216923628696e+02   4.215857414823135e+04   1.174552921238780e+02  -3.027566672723813e+00  -4.932486441082703e-02   5.338422830974617e-01
2017-01-01T00:03:50.000  -6.963971796207353e+02   4.215806969039891e+04   1.227936834435352e+02  -3.027530496638331e+00  -5.156669764000166e-02   5.338359310703540e-01
2017-01-01T00:04:00.000  -7.266722971283084e+02   4.215754281436514e+04   1.281320098341007e+02  -3.027492710578500e+00  -5.380850341757039e-02   5.338292951478193e-01
2017-01-01T00:04:10.000  -7.569470291906079e+02   4.215699352041000e+04   1.334702685279902e+02  -3.027453314564346e+00  -5.605028058143008e-02   5.338223753333610e-01
2017-01-01T00:04:20.000  -7.872213592837788e+02   4.215642180883011e+04   1.388084566114669e+02  -3.027412308617107e+00  -5.829202790810113e-02   5.338151716306955e-01
2017-01-01T00:04:30.000  -8.174952708452139e+02   4.215582767993922e+04   1.441465711639603e+02  -3.027369692759222e+00  -6.053374417123433e-02   5.338076840437498e-01
2017-01-01T00:04:40.000  -8.477687476965474e+02   4.215521113405671e+04   1.494846093326518e+02  -3.027325467013568e+00  -6.277542817293220e-02   5.337999125765293e-01
2017-01-01T00:04:50.000  -8.780417739697932e+02   4.215457217150563e+04   1.548225683194509e+02  -3.027279631403270e+00  -6.501707873828029e-02   5.337918572330841e-01
2017-01-01T00:05:00.000  -9.083143338040453e+02   4.215391079262147e+04   1.601604453275156e+02  -3.027232185952345e+00  -6.725869469288817e-02   5.337835180176204e-01
2017-01-01T00:05:10.000  -9.385864114238049e+02   4.215322699775023e+04   1.654982375750627e+02  -3.027183130685569e+00  -6.950027486868929e-02   5.337748949344789e-01
2017-01-01T00:05:20.000  -9.688579907468574e+02   4.215252078725417e+04   1.708359422262267e+02  -3.027132465628886e+00  -7.174181807490536e-02   5.337659879882057e-01
2017-01-01T00:05:30.000  -9.991290556754268e+02   4.215179216150855e+04   1.761735564423980e+02  -3.027080190809166e+00  -7.398332311960575e-02   5.337567971835114e-01
2017-01-01T00:05:40.000  -1.029399590096157e+03   4.215104112090020e+04   1.815110773822192e+02  -3.027026306254121e+00  -7.622478880970568e-02   5.337473225252533e-01
2017-01-01T00:05:50.000  -1.059669577589129e+03   4.215026766583788e+04   1.868485021502774e+02  -3.026970811993030e+00  -7.846621392942012e-02   5.337375640185651e-01
2017-01-01T00:06:00.000  -1.089939001819843e+03   4.214947179673966e+04   1.921858278662212e+02  -3.026913708055840e+00  -8.070759726928876e-02   5.337275216686997e-01
2017-01-01T00:06:10.000  -1.120207846384803e+03   4.214865351403739e+04   1.975230516375328e+02  -3.026854994473494e+00  -8.294893761474220e-02   5.337171954810846e-01
2017-01-01T00:06:20.000  -1.150476095494592e+03   4.214781281815862e+04   2.028601706799732e+02  -3.026794671276621e+00  -8.519023379668207e-02   5.337065854610922e-01
2017-01-01T00:06:30.000  -1.180743733290808e+03   4.214694970954445e+04   2.081971821971391e+02  -3.026732738496824e+00  -8.743148464090153e-02   5.336956916142671e-01
2017-01-01T00:06:40.000  -1.211010744000521e+03   4.214606418864599e+04   2.135340834076981e+02  -3.026669196166428e+00  -8.967268897952255e-02   5.336845139462816e-01
2017-01-01T00:06:50.000  -1.241277111544199e+03   4.214515625593272e+04   2.188708714762548e+02  -3.026604044319076e+00  -9.191384562196370e-02   5.336730524630386e-01
2017-01-01T00:07:00.000  -1.271542819826828e+03   4.214422591188710e+04   2.242075435646846e+02  -3.026537282989339e+00  -9.415495337649715e-02   5.336613071706072e-01
2017-01-01T00:07:10.000  -1.301807852737897e+03   4.214327315700336e+04   2.295440968321286e+02  -3.026468912212638e+00  -9.639601105024702e-02   5.336492780752043e-01
2017-01-01T00:07:20.000  -1.332072193860472e+03   4.214229799179969e+04   2.348805283836983e+02  -3.026398932026110e+00  -9.863701742764758e-02   5.336369651833498e-01
2017-01-01T00:07:30.000  -1.362335826863102e+03   4.214130041680294e+04   2.402168353395768e+02  -3.026327342467521e+00  -1.008779712994626e-01   5.336243685016744e-01
2017-01-01T00:07:40.000  -1.392598735345429e+03   4.214028043255434e+04   2.455530148077973e+02  -3.026254143575661e+00  -1.031188714513532e-01   5.336114880369894e-01
2017-01-01T00:07:50.000  -1.422860903521132e+03   4.213923803958661e+04   2.508890640046643e+02  -3.026179335388713e+00  -1.053597167144486e-01   5.335983237960003e-01
2017-01-01T00:08:00.000  -1.453122315534997e+03   4.213817323844648e+04   2.562249801343338e+02  -3.026102917945870e+00  -1.076005059147761e-01   5.335848757855899e-01
2017-01-01T00:08:10.000  -1.483382955617339e+03   4.213708602969022e+04   2.615607604160436e+02  -3.026024891287006e+00  -1.098412378846965e-01   5.335711440127611e-01
2017-01-01T00:08:20.000  -1.513642807692003e+03   4.213597641389443e+04   2.668964020149908e+02  -3.025945255453454e+00  -1.120819114338765e-01   5.335571284847742e-01
2017-01-01T00:08:30.000  -1.543901855667433e+03   4.213484439164881e+04   2.722319020936578e+02  -3.025864010487491e+00  -1.143225253708426e-01   5.335428292090560e-01
2017-01-01T00:08:40.000  -1.574160083436651e+03   4.213368996355494e+04   2.775672578118069e+02  -3.025781156432247e+00  -1.165630785029788e-01   5.335282461931831e-01
2017-01-01T00:08:50.000  -1.604417474586421e+03   4.213251313024041e+04   2.829024662751982e+02  -3.025696693332712e+00  -1.188035696149914e-01   5.335133794450606e-01
2017-01-01T00:09:00.000  -1.634674012789041e+03   4.213131389234087e+04   2.882375246046740e+02  -3.025610621234463e+00  -1.210439974979202e-01   5.334982289726968e-01
